{
  "type": "FeatureCollection",
  "features": [
    {
      "type": "Feature",
      "properties": {
        "norad_id": 66517,
        "name": "STARLINK-35937",
        "group": "last-30-days",
        "lat": NaN,
        "lon": NaN,
        "alt_km": NaN,
        "timestamp": "2025-12-01T02:46:51.396114+00:00",
        "meta": {
          "OBJECT_NAME": "STARLINK-35937",
          "OBJECT_ID": "2025-265B",
          "EPOCH": "2025-11-30T20:00:03.000384",
          "MEAN_MOTION": 15.78205977,
          "ECCENTRICITY": 0.0001739,
          "INCLINATION": 42.9997,
          "RA_OF_ASC_NODE": 125.0245,
          "ARG_OF_PERICENTER": 280.4654,
          "MEAN_ANOMALY": 76.9628,
          "EPHEMERIS_TYPE": 0,
          "CLASSIFICATION_TYPE": "U",
          "NORAD_CAT_ID": 66517,
          "ELEMENT_SET_NO": 999,
          "REV_AT_EPOCH": 308,
          "BSTAR": -0.0084554,
          "MEAN_MOTION_DOT": -0.01336095,
          "MEAN_MOTION_DDOT": 0
        }
      },
      "geometry": {
        "type": "Point",
        "coordinates": [
          NaN,
          NaN
        ]
      }
    },
    {
      "type": "Feature",
      "properties": {
        "norad_id": 66518,
        "name": "STARLINK-35962",
        "group": "last-30-days",
        "lat": NaN,
        "lon": NaN,
        "alt_km": NaN,
        "timestamp": "2025-12-01T02:46:51.396135+00:00",
        "meta": {
          "OBJECT_NAME": "STARLINK-35962",
          "OBJECT_ID": "2025-265C",
          "EPOCH": "2025-11-30T20:00:03.000384",
          "MEAN_MOTION": 15.78195523,
          "ECCENTRICITY": 0.0001735,
          "INCLINATION": 42.9997,
          "RA_OF_ASC_NODE": 125.0192,
          "ARG_OF_PERICENTER": 285.3306,
          "MEAN_ANOMALY": 74.0821,
          "EPHEMERIS_TYPE": 0,
          "CLASSIFICATION_TYPE": "U",
          "NORAD_CAT_ID": 66518,
          "ELEMENT_SET_NO": 999,
          "REV_AT_EPOCH": 308,
          "BSTAR": -0.0084819,
          "MEAN_MOTION_DOT": -0.0133927,
          "MEAN_MOTION_DDOT": 0
        }
      },
      "geometry": {
        "type": "Point",
        "coordinates": [
          NaN,
          NaN
        ]
      }
    },
    {
      "type": "Feature",
      "properties": {
        "norad_id": 66519,
        "name": "STARLINK-35931",
        "group": "last-30-days",
        "lat": NaN,
        "lon": NaN,
        "alt_km": NaN,
        "timestamp": "2025-12-01T02:46:51.396154+00:00",
        "meta": {
          "OBJECT_NAME": "STARLINK-35931",
          "OBJECT_ID": "2025-265D",
          "EPOCH": "2025-11-30T20:00:03.000384",
          "MEAN_MOTION": 15.78153852,
          "ECCENTRICITY": 0.0001769,
          "INCLINATION": 42.9998,
          "RA_OF_ASC_NODE": 125.0136,
          "ARG_OF_PERICENTER": 277.4481,
          "MEAN_ANOMALY": 84.0907,
          "EPHEMERIS_TYPE": 0,
          "CLASSIFICATION_TYPE": "U",
          "NORAD_CAT_ID": 66519,
          "ELEMENT_SET_NO": 999,
          "REV_AT_EPOCH": 308,
          "BSTAR": -0.008553,
          "MEAN_MOTION_DOT": -0.01347032,
          "MEAN_MOTION_DDOT": 0
        }
      },
      "geometry": {
        "type": "Point",
        "coordinates": [
          NaN,
          NaN
        ]
      }
    },
    {
      "type": "Feature",
      "properties": {
        "norad_id": 66520,
        "name": "STARLINK-35952",
        "group": "last-30-days",
        "lat": NaN,
        "lon": NaN,
        "alt_km": NaN,
        "timestamp": "2025-12-01T02:46:51.396171+00:00",
        "meta": {
          "OBJECT_NAME": "STARLINK-35952",
          "OBJECT_ID": "2025-265E",
          "EPOCH": "2025-11-30T20:00:03.000384",
          "MEAN_MOTION": 15.78109225,
          "ECCENTRICITY": 0.0001608,
          "INCLINATION": 42.9996,
          "RA_OF_ASC_NODE": 125.0081,
          "ARG_OF_PERICENTER": 285.3116,
          "MEAN_ANOMALY": 78.3616,
          "EPHEMERIS_TYPE": 0,
          "CLASSIFICATION_TYPE": "U",
          "NORAD_CAT_ID": 66520,
          "ELEMENT_SET_NO": 999,
          "REV_AT_EPOCH": 308,
          "BSTAR": -0.0086419,
          "MEAN_MOTION_DOT": -0.01356965,
          "MEAN_MOTION_DDOT": 0
        }
      },
      "geometry": {
        "type": "Point",
        "coordinates": [
          NaN,
          NaN
        ]
      }
    },
    {
      "type": "Feature",
      "properties": {
        "norad_id": 66521,
        "name": "STARLINK-35915",
        "group": "last-30-days",
        "lat": NaN,
        "lon": NaN,
        "alt_km": NaN,
        "timestamp": "2025-12-01T02:46:51.396187+00:00",
        "meta": {
          "OBJECT_NAME": "STARLINK-35915",
          "OBJECT_ID": "2025-265F",
          "EPOCH": "2025-11-30T20:00:03.000384",
          "MEAN_MOTION": 15.78111583,
          "ECCENTRICITY": 0.0001681,
          "INCLINATION": 42.9997,
          "RA_OF_ASC_NODE": 125.0032,
          "ARG_OF_PERICENTER": 284.3307,
          "MEAN_ANOMALY": 81.2793,
          "EPHEMERIS_TYPE": 0,
          "CLASSIFICATION_TYPE": "U",
          "NORAD_CAT_ID": 66521,
          "ELEMENT_SET_NO": 999,
          "REV_AT_EPOCH": 308,
          "BSTAR": -0.0086775,
          "MEAN_MOTION_DOT": -0.01362129,
          "MEAN_MOTION_DDOT": 0
        }
      },
      "geometry": {
        "type": "Point",
        "coordinates": [
          NaN,
          NaN
        ]
      }
    },
    {
      "type": "Feature",
      "properties": {
        "norad_id": 66522,
        "name": "STARLINK-35946",
        "group": "last-30-days",
        "lat": NaN,
        "lon": NaN,
        "alt_km": NaN,
        "timestamp": "2025-12-01T02:46:51.396203+00:00",
        "meta": {
          "OBJECT_NAME": "STARLINK-35946",
          "OBJECT_ID": "2025-265G",
          "EPOCH": "2025-11-30T20:00:03.000384",
          "MEAN_MOTION": 15.78055299,
          "ECCENTRICITY": 0.0001827,
          "INCLINATION": 42.9996,
          "RA_OF_ASC_NODE": 124.9977,
          "ARG_OF_PERICENTER": 281.683,
          "MEAN_ANOMALY": 86.0982,
          "EPHEMERIS_TYPE": 0,
          "CLASSIFICATION_TYPE": "U",
          "NORAD_CAT_ID": 66522,
          "ELEMENT_SET_NO": 999,
          "REV_AT_EPOCH": 308,
          "BSTAR": -0.0087499,
          "MEAN_MOTION_DOT": -0.0136922,
          "MEAN_MOTION_DDOT": 0
        }
      },
      "geometry": {
        "type": "Point",
        "coordinates": [
          NaN,
          NaN
        ]
      }
    },
    {
      "type": "Feature",
      "properties": {
        "norad_id": 66523,
        "name": "STARLINK-35969",
        "group": "last-30-days",
        "lat": NaN,
        "lon": NaN,
        "alt_km": NaN,
        "timestamp": "2025-12-01T02:46:51.396220+00:00",
        "meta": {
          "OBJECT_NAME": "STARLINK-35969",
          "OBJECT_ID": "2025-265H",
          "EPOCH": "2025-11-30T20:00:03.000384",
          "MEAN_MOTION": 15.78022847,
          "ECCENTRICITY": 0.0001769,
          "INCLINATION": 42.9997,
          "RA_OF_ASC_NODE": 124.9924,
          "ARG_OF_PERICENTER": 280.6691,
          "MEAN_ANOMALY": 89.2116,
          "EPHEMERIS_TYPE": 0,
          "CLASSIFICATION_TYPE": "U",
          "NORAD_CAT_ID": 66523,
          "ELEMENT_SET_NO": 999,
          "REV_AT_EPOCH": 308,
          "BSTAR": -0.0088763,
          "MEAN_MOTION_DOT": -0.01384972,
          "MEAN_MOTION_DDOT": 0
        }
      },
      "geometry": {
        "type": "Point",
        "coordinates": [
          NaN,
          NaN
        ]
      }
    },
    {
      "type": "Feature",
      "properties": {
        "norad_id": 66524,
        "name": "STARLINK-35687",
        "group": "last-30-days",
        "lat": NaN,
        "lon": NaN,
        "alt_km": NaN,
        "timestamp": "2025-12-01T02:46:51.396238+00:00",
        "meta": {
          "OBJECT_NAME": "STARLINK-35687",
          "OBJECT_ID": "2025-265J",
          "EPOCH": "2025-11-30T20:00:03.000384",
          "MEAN_MOTION": 15.77978988,
          "ECCENTRICITY": 0.0001767,
          "INCLINATION": 42.9997,
          "RA_OF_ASC_NODE": 124.9868,
          "ARG_OF_PERICENTER": 282.5082,
          "MEAN_ANOMALY": 89.5008,
          "EPHEMERIS_TYPE": 0,
          "CLASSIFICATION_TYPE": "U",
          "NORAD_CAT_ID": 66524,
          "ELEMENT_SET_NO": 999,
          "REV_AT_EPOCH": 308,
          "BSTAR": -0.0089865,
          "MEAN_MOTION_DOT": -0.01397769,
          "MEAN_MOTION_DDOT": 0
        }
      },
      "geometry": {
        "type": "Point",
        "coordinates": [
          NaN,
          NaN
        ]
      }
    }
  ]
}