STARLINK-35937          
1 66517U 25265B   25334.83336806 -.01336095  00000+0 -84554-2 0  9995
2 66517  42.9997 125.0245 0001739 280.4654  76.9628 15.78205977  3085
STARLINK-35962          
1 66518U 25265C   25334.83336806 -.01339270  00000+0 -84819-2 0  9998
2 66518  42.9997 125.0192 0001735 285.3306  74.0821 15.78195523  3080
STARLINK-35931          
1 66519U 25265D   25334.83336806 -.01347032  00000+0 -85530-2 0  9995
2 66519  42.9998 125.0136 0001769 277.4481  84.0907 15.78153852  3088
STARLINK-35952          
1 66520U 25265E   25334.83336806 -.01356965  00000+0 -86419-2 0  9999
2 66520  42.9996 125.0081 0001608 285.3116  78.3616 15.78109225  3080
STARLINK-35915          
1 66521U 25265F   25334.83336806 -.01362129  00000+0 -86775-2 0  9994
2 66521  42.9997 125.0032 0001681 284.3307  81.2793 15.78111583  3089
STARLINK-35946          
1 66522U 25265G   25334.83336806 -.01369220  00000+0 -87499-2 0  9998
2 66522  42.9996 124.9977 0001827 281.6830  86.0982 15.78055299  3082
STARLINK-35969          
1 66523U 25265H   25334.83336806 -.01384972  00000+0 -88763-2 0  9995
2 66523  42.9997 124.9924 0001769 280.6691  89.2116 15.78022847  3082
STARLINK-35687          
1 66524U 25265J   25334.83336806 -.01397769  00000+0 -89865-2 0  9998
2 66524  42.9997 124.9868 0001767 282.5082  89.5008 15.77978988  3081
